{
  "norad_id": 39216,
  "name": "INSAT-3D",
  "history": [
    {
      "epoch": "2026-03-28T22:14:50.538912",
      "apogee_km": 35794.056383500174,
      "perigee_km": 35780.72364385845,
      "latitude_deg": -0.7418331315979817,
      "longitude_deg": -9.410512319765985,
      "semi_major_axis_km": 42165.52701367932,
      "eccentricity": 0.0001581,
      "inclination_deg": 1.7193,
      "raan_deg": 83.5487,
      "arg_perigee_deg": 246.4245,
      "mean_anomaly_deg": 319.6131,
      "mean_motion_rev_day": 1.00268949
    },
    {
      "epoch": "2026-03-28T23:57:27.745056",
      "apogee_km": 35794.056922998236,
      "perigee_km": 35780.74104673421,
      "latitude_deg": -1.7192920338167068,
      "longitude_deg": -2.5691721600014716,
      "semi_major_axis_km": 42165.53598486623,
      "eccentricity": 0.0001579,
      "inclination_deg": 1.7195,
      "raan_deg": 83.5474,
      "arg_perigee_deg": 246.6189,
      "mean_anomaly_deg": 345.1445,
      "mean_motion_rev_day": 1.00268917
    }
  ]
}